OBJECT_NAME,OBJECT_ID,EPOCH,MEAN_MOTION,ECCENTRICITY,INCLINATION,RA_OF_ASC_NODE,ARG_OF_PERICENTER,MEAN_ANOMALY,EPHEMERIS_TYPE,CLASSIFICATION_TYPE,NORAD_CAT_ID,ELEMENT_SET_NO,REV_AT_EPOCH,BSTAR,MEAN_MOTION_DOT,MEAN_MOTION_DDOT
ONEWEB-0369,2021-090S,2026-06-11T10:04:38.680032,13.19724970,.0001776,87.9164,306.1233,96.8608,263.2727,0,U,49295,999,22565,.20688E-3,.96E-6,0
ONEWEB-0370,2021-090T,2026-06-11T13:35:37.921632,13.20770419,.0002138,87.9191,275.5602,106.9342,253.2026,0,U,49296,999,22912,.23928E-3,.11E-5,0
ONEWEB-0371,2021-090U,2026-06-11T15:43:32.126016,13.19724481,.000181,87.9173,306.0684,101.0768,259.0568,0,U,49297,999,22572,.2072E-3,.96E-6,0
ONEWEB-0372,2021-090V,2026-06-11T13:20:53.323872,13.20771671,.0001941,87.9192,275.5639,101.1900,258.9452,0,U,49298,999,22909,.15826E-3,.77E-6,0
ONEWEB-0373,2021-090W,2026-06-11T13:57:27.686880,13.20771358,.000206,87.9190,275.5594,100.7605,259.3760,0,U,49299,999,23028,.26238E-3,.12E-5,0
ONEWEB-0374,2021-090X,2026-06-11T15:19:05.126592,13.14503286,.0002257,87.8963,290.8033,86.6873,273.4515,0,U,49300,999,22683,.37067E-3,.15E-5,0
ONEWEB-0375,2021-090Y,2026-06-11T08:13:13.836000,13.20771479,.0002391,87.9191,275.5985,90.0301,270.1106,0,U,49301,999,22975,.22629E-3,.105E-5,0
ONEWEB-0376,2021-090Z,2026-06-11T15:41:15.816192,13.19724935,.0001662,87.9172,306.0685,99.1530,260.9791,0,U,49302,999,22572,.17228E-3,.82E-6,0
ONEWEB-0377,2021-090AA,2026-06-11T13:21:18.379008,13.20772432,.0002189,87.9192,275.5578,99.8959,260.2421,0,U,49303,999,22977,.11377E-3,.59E-6,0
ONEWEB-0378,2021-090AB,2026-06-11T08:23:06.406944,13.20770593,.0002007,87.9188,275.6044,96.3148,263.8214,0,U,49304,999,22901,.90925E-4,.5E-6,0
ONEWEB-0379,2021-090AC,2026-06-11T15:12:13.548096,13.14502956,.0001916,87.8962,290.8150,96.0221,264.1127,0,U,49305,999,22683,.37602E-4,.27E-6,0
ONEWEB-0380,2021-090AD,2026-06-11T15:36:43.643232,13.19724612,.0002064,87.9165,306.0748,97.6543,262.4824,0,U,49306,999,22569,.17231E-3,.82E-6,0
ONEWEB-0381,2021-090AE,2026-06-11T13:16:15.419136,13.20772314,.0002124,87.9192,275.5632,93.8328,266.3048,0,U,49307,999,22908,.16385E-3,.8E-6,0
ONEWEB-0382,2021-090AF,2026-06-11T16:35:01.006368,13.20769894,.0002039,87.9190,275.5299,91.8647,268.2720,0,U,49308,999,22909,-.11791E-3,-.35E-6,0
ONEWEB-0383,2021-090AG,2026-06-11T15:03:03.962016,13.14502461,.0001847,87.8965,290.8074,95.1159,265.0182,0,U,49309,999,22686,-.87665E-3,-.312E-5,0
ONEWEB-0384,2021-090AH,2026-06-11T16:18:55.018080,13.20812608,.0002057,87.9194,275.5758,86.7172,273.4197,0,U,49310,999,22910,.10566E-3,.56E-6,0
ONEWEB-0385,2021-090AJ,2026-06-11T14:36:15.388416,13.20772452,.0002046,87.9190,275.5517,94.8501,265.2866,0,U,49311,999,22906,-.86729E-4,-.22E-6,0
ONEWEB-0386,2021-090AK,2026-06-11T07:44:08.341728,13.20771386,.0001968,87.9195,275.5993,92.5686,267.5673,0,U,49312,999,22904,.11676E-3,.6E-6,0
ONEWEB-0387,2021-090AL,2026-06-11T16:27:46.207872,13.20772157,.0002317,87.9181,275.5499,98.0205,262.1192,0,U,49313,999,22909,-.11758E-3,-.35E-6,0
ONEWEB-0388,2021-090AM,2026-06-11T15:29:54.235968,13.19725096,.0001887,87.9164,306.0737,93.5397,266.5951,0,U,49314,999,22568,.16195E-3,.78E-6,0
ONEWEB-0389,2021-132A,2026-06-11T13:54:23.535648,13.17648392,.0002183,87.9135,6.9836,83.0977,277.0403,0,U,50469,999,21734,.3158E-4,.25E-6,0
ONEWEB-0390,2021-132B,2026-06-11T13:56:49.295904,13.17648568,.0001919,87.9136,6.9842,93.5493,266.5858,0,U,50470,999,21734,.12478E-3,.61E-6,0
ONEWEB-0391,2021-132C,2026-06-11T13:59:15.211680,13.17648134,.0002677,87.9137,6.9935,88.7850,271.3588,0,U,50471,999,21734,.47634E-4,.31E-6,0
ONEWEB-0392,2021-132D,2026-06-11T14:43:00.186240,13.17648888,.000226,87.9145,6.9557,84.8026,275.3363,0,U,50472,999,21738,.16912E-3,.79E-6,0
ONEWEB-0393,2021-132E,2026-06-11T14:07:45.758784,13.17649622,.0002033,87.9136,6.9779,85.2665,274.8699,0,U,50473,999,21737,.66284E-4,.39E-6,0
ONEWEB-0394,2021-132F,2026-06-11T11:35:51.980928,13.18685133,.0002022,87.9168,336.5768,87.5676,272.5687,0,U,50474,999,22084,.10406E-3,.54E-6,0
ONEWEB-0395,2021-132G,2026-06-11T14:20:14.322336,13.11417600,.0001982,87.8888,22.1803,89.5023,270.6332,0,U,50475,999,21498,.17192E-2,.622E-5,0
ONEWEB-0396,2021-132H,2026-06-11T13:15:24.926112,13.18684988,.0001963,87.9168,336.5758,87.3784,272.7573,0,U,50476,999,22089,-.33237E-4,0,0
ONEWEB-0397,2021-132J,2026-06-11T11:48:00.705312,13.18685094,.0001911,87.9168,336.5878,84.0966,276.0383,0,U,50477,999,22086,.10833E-3,.56E-6,0
ONEWEB-0398,2021-132K,2026-06-11T15:23:40.956000,13.11416647,.0001882,87.8899,22.1618,94.4673,265.6670,0,U,50478,999,21488,-.14341E-2,-.496E-5,0
ONEWEB-0399,2021-132L,2026-06-11T15:04:09.824736,13.11414268,.0002214,87.8898,22.1749,76.5449,283.5926,0,U,50479,999,21487,-.11092E-2,-.38E-5,0
