ONEWEB-0369             
1 49295U 21090S   26162.41989213  .00000096  00000+0  20688-3 0  9996
2 49295  87.9164 306.1233 0001776  96.8608 263.2727 13.19724970225654
ONEWEB-0370             
1 49296U 21090T   26162.56641113  .00000110  00000+0  23928-3 0  9994
2 49296  87.9191 275.5602 0002138 106.9342 253.2026 13.20770419229123
ONEWEB-0371             
1 49297U 21090U   26162.65523294  .00000096  00000+0  20720-3 0  9994
2 49297  87.9173 306.0684 0001810 101.0768 259.0568 13.19724481225721
ONEWEB-0372             
1 49298U 21090V   26162.55617273  .00000077  00000+0  15826-3 0  9995
2 49298  87.9192 275.5639 0001941 101.1900 258.9452 13.20771671229096
ONEWEB-0373             
1 49299U 21090W   26162.58157045  .00000120  00000+0  26238-3 0  9993
2 49299  87.9190 275.5594 0002060 100.7605 259.3760 13.20771358230287
ONEWEB-0374             
1 49300U 21090X   26162.63825378  .00000150  00000+0  37067-3 0  9998
2 49300  87.8963 290.8033 0002257  86.6873 273.4515 13.14503286226839
ONEWEB-0375             
1 49301U 21090Y   26162.34252125  .00000105  00000+0  22629-3 0  9999
2 49301  87.9191 275.5985 0002391  90.0301 270.1106 13.20771479229756
ONEWEB-0376             
1 49302U 21090Z   26162.65365528  .00000082  00000+0  17228-3 0  9999
2 49302  87.9172 306.0685 0001662  99.1530 260.9791 13.19724935225720
ONEWEB-0377             
1 49303U 21090AA  26162.55646272  .00000059  00000+0  11377-3 0  9990
2 49303  87.9192 275.5578 0002189  99.8959 260.2421 13.20772432229770
ONEWEB-0378             
1 49304U 21090AB  26162.34937971  .00000050  00000+0  90925-4 0  9995
2 49304  87.9188 275.6044 0002007  96.3148 263.8214 13.20770593229018
ONEWEB-0379             
1 49305U 21090AC  26162.63349014  .00000027  00000+0  37602-4 0  9990
2 49305  87.8962 290.8150 0001916  96.0221 264.1127 13.14502956226835
ONEWEB-0380             
1 49306U 21090AD  26162.65050513  .00000082  00000+0  17231-3 0  9992
2 49306  87.9165 306.0748 0002064  97.6543 262.4824 13.19724612225692
ONEWEB-0381             
1 49307U 21090AE  26162.55295624  .00000080  00000+0  16385-3 0  9993
2 49307  87.9192 275.5632 0002124  93.8328 266.3048 13.20772314229083
ONEWEB-0382             
1 49308U 21090AF  26162.69098387 -.00000035  00000+0 -11791-3 0  9994
2 49308  87.9190 275.5299 0002039  91.8647 268.2720 13.20769894229096
ONEWEB-0383             
1 49309U 21090AG  26162.62712919 -.00000312  00000+0 -87665-3 0  9993
2 49309  87.8965 290.8074 0001847  95.1159 265.0182 13.14502461226865
ONEWEB-0384             
1 49310U 21090AH  26162.67980345  .00000056  00000+0  10566-3 0  9999
2 49310  87.9194 275.5758 0002057  86.7172 273.4197 13.20812608229109
ONEWEB-0385             
1 49311U 21090AJ  26162.60851144 -.00000022  00000+0 -86729-4 0  9997
2 49311  87.9190 275.5517 0002046  94.8501 265.2866 13.20772452229062
ONEWEB-0386             
1 49312U 21090AK  26162.32231877  .00000060  00000+0  11676-3 0  9990
2 49312  87.9195 275.5993 0001968  92.5686 267.5673 13.20771386229041
ONEWEB-0387             
1 49313U 21090AL  26162.68595148 -.00000035  00000+0 -11758-3 0  9999
2 49313  87.9181 275.5499 0002317  98.0205 262.1192 13.20772157229094
ONEWEB-0388             
1 49314U 21090AM  26162.64576662  .00000078  00000+0  16195-3 0  9991
2 49314  87.9164 306.0737 0001887  93.5397 266.5951 13.19725096225684
ONEWEB-0389             
1 50469U 21132A   26162.57943907  .00000025  00000+0  31580-4 0  9991
2 50469  87.9135   6.9836 0002183  83.0977 277.0403 13.17648392217343
ONEWEB-0390             
1 50470U 21132B   26162.58112611  .00000061  00000+0  12478-3 0  9998
2 50470  87.9136   6.9842 0001919  93.5493 266.5858 13.17648568217340
ONEWEB-0391             
1 50471U 21132C   26162.58281495  .00000031  00000+0  47634-4 0  9996
2 50471  87.9137   6.9935 0002677  88.7850 271.3588 13.17648134217343
ONEWEB-0392             
1 50472U 21132D   26162.61319660  .00000079  00000+0  16912-3 0  9993
2 50472  87.9145   6.9557 0002260  84.8026 275.3363 13.17648888217388
ONEWEB-0393             
1 50473U 21132E   26162.58872406  .00000039  00000+0  66284-4 0  9996
2 50473  87.9136   6.9779 0002033  85.2665 274.8699 13.17649622217379
ONEWEB-0394             
1 50474U 21132F   26162.48324052  .00000054  00000+0  10406-3 0  9996
2 50474  87.9168 336.5768 0002022  87.5676 272.5687 13.18685133220846
ONEWEB-0395             
1 50475U 21132G   26162.59738799  .00000622  00000+0  17192-2 0  9995
2 50475  87.8888  22.1803 0001982  89.5023 270.6332 13.11417600214984
ONEWEB-0396             
1 50476U 21132H   26162.55237183  .00000000  00000+0 -33237-4 0  9994
2 50476  87.9168 336.5758 0001963  87.3784 272.7573 13.18684988220896
ONEWEB-0397             
1 50477U 21132J   26162.49167483  .00000056  00000+0  10833-3 0  9999
2 50477  87.9168 336.5878 0001911  84.0966 276.0383 13.18685094220861
ONEWEB-0398             
1 50478U 21132K   26162.64144625 -.00000496  00000+0 -14341-2 0  9997
2 50478  87.8899  22.1618 0001882  94.4673 265.6670 13.11416647214886
ONEWEB-0399             
1 50479U 21132L   26162.62789149 -.00000380  00000+0 -11092-2 0  9994
2 50479  87.8898  22.1749 0002214  76.5449 283.5926 13.11414268214872
